[{"OBJECT_NAME":"ION SCV-010","OBJECT_ID":"2023-054Q","EPOCH":"2026-03-09T16:02:35.904768","MEAN_MOTION":15.25210322,"ECCENTRICITY":0.00127052,"INCLINATION":97.3904,"RA_OF_ASC_NODE":319.4312,"ARG_OF_PERICENTER":188.785,"MEAN_ANOMALY":171.3168,"EPHEMERIS_TYPE":0,"CLASSIFICATION_TYPE":"U","NORAD_CAT_ID":56192,"ELEMENT_SET_NO":999,"REV_AT_EPOCH":16102,"BSTAR":0.00025045068,"MEAN_MOTION_DOT":6.231e-5,"MEAN_MOTION_DDOT":0},{"OBJECT_NAME":"STARLINK-33707","OBJECT_ID":"2025-065C","EPOCH":"2026-03-08T12:38:49.447680","MEAN_MOTION":15.27581718,"ECCENTRICITY":0.00020118,"INCLINATION":43.0003,"RA_OF_ASC_NODE":113.5212,"ARG_OF_PERICENTER":291.8895,"MEAN_ANOMALY":68.1743,"EPHEMERIS_TYPE":0,"CLASSIFICATION_TYPE":"U","NORAD_CAT_ID":63401,"ELEMENT_SET_NO":999,"REV_AT_EPOCH":5266,"BSTAR":0.0015091346,"MEAN_MOTION_DOT":0.00041503,"MEAN_MOTION_DDOT":0}]
